[{"CCSDS_OMM_VERS":"2.0","COMMENT":"GENERATED VIA SPACE-TRACK.ORG API","CREATION_DATE":"2019-06-13T04:57:32","ORIGINATOR":"18 SPCS","OBJECT_NAME":"GALILEO-FM3","OBJECT_ID":"2012-055A","CENTER_NAME":"EARTH","REF_FRAME":"TEME","TIME_SYSTEM":"UTC","MEAN_ELEMENT_THEORY":"SGP4","EPOCH":"2019-06-12T06:33:43.136352","MEAN_MOTION":"1.70473734","ECCENTRICITY":"0.00053540","INCLINATION":"54.9329","RA_OF_ASC_NODE":"172.0048","ARG_OF_PERICENTER":"267.0182","MEAN_ANOMALY":"92.9554","EPHEMERIS_TYPE":"0","CLASSIFICATION_TYPE":"U","NORAD_CAT_ID":"38857","ELEMENT_SET_NO":"999","REV_AT_EPOCH":"4148","BSTAR":"0.00000000000000","MEAN_MOTION_DOT":"0.00000083","MEAN_MOTION_DDOT":"0.0000000000000","SEMIMAJOR_AXIS":"29600.350","PERIOD":"844.704","APOAPSIS":"23238.063","PERIAPSIS":"23206.367","OBJECT_TYPE":"PAYLOAD","RCS_SIZE":"LARGE","COUNTRY_CODE":"ESA","LAUNCH_DATE":"2012-10-12","SITE":"FRGUI","DECAY_DATE":null,"FILE":"2493886","GP_ID":"133154843","TLE_LINE0":"0 GALILEO-FM3","TLE_LINE1":"1 38857U 12055A   19163.27341593 +.00000083 +00000-0 +00000-0 0  9999","TLE_LINE2":"2 38857 054.9329 172.0048 0005354 267.0182 092.9554 01.70473734041487"},{"CCSDS_OMM_VERS":"2.0","COMMENT":"GENERATED VIA SPACE-TRACK.ORG API","CREATION_DATE":"2019-06-13T20:20:17","ORIGINATOR":"18 SPCS","OBJECT_NAME":"GALILEO-FM3","OBJECT_ID":"2012-055A","CENTER_NAME":"EARTH","REF_FRAME":"TEME","TIME_SYSTEM":"UTC","MEAN_ELEMENT_THEORY":"SGP4","EPOCH":"2019-06-13T10:43:04.632096","MEAN_MOTION":"1.70473751","ECCENTRICITY":"0.00053550","INCLINATION":"54.9331","RA_OF_ASC_NODE":"171.9725","ARG_OF_PERICENTER":"267.1334","MEAN_ANOMALY":"92.8392","EPHEMERIS_TYPE":"0","CLASSIFICATION_TYPE":"U","NORAD_CAT_ID":"38857","ELEMENT_SET_NO":"999","REV_AT_EPOCH":"4150","BSTAR":"0.00000000000000","MEAN_MOTION_DOT":"0.00000080","MEAN_MOTION_DDOT":"0.0000000000000","SEMIMAJOR_AXIS":"29600.348","PERIOD":"844.704","APOAPSIS":"23238.064","PERIAPSIS":"23206.362","OBJECT_TYPE":"PAYLOAD","RCS_SIZE":"LARGE","COUNTRY_CODE":"ESA","LAUNCH_DATE":"2012-10-12","SITE":"FRGUI","DECAY_DATE":null,"FILE":"2494187","GP_ID":"133203896","TLE_LINE0":"0 GALILEO-FM3","TLE_LINE1":"1 38857U 12055A   19164.44658139  .00000080  00000-0  00000+0 0  9992","TLE_LINE2":"2 38857  54.9331 171.9725 0005355 267.1334  92.8392  1.70473751 41502"},{"CCSDS_OMM_VERS":"2.0","COMMENT":"GENERATED VIA SPACE-TRACK.ORG API","CREATION_DATE":"2019-06-16T03:27:44","ORIGINATOR":"18 SPCS","OBJECT_NAME":"GALILEO-FM3","OBJECT_ID":"2012-055A","CENTER_NAME":"EARTH","REF_FRAME":"TEME","TIME_SYSTEM":"UTC","MEAN_ELEMENT_THEORY":"SGP4","EPOCH":"2019-06-15T19:01:46.339680","MEAN_MOTION":"1.70473802","ECCENTRICITY":"0.00053420","INCLINATION":"54.9336","RA_OF_ASC_NODE":"171.9079","ARG_OF_PERICENTER":"267.3153","MEAN_ANOMALY":"92.6462","EPHEMERIS_TYPE":"0","CLASSIFICATION_TYPE":"U","NORAD_CAT_ID":"38857","ELEMENT_SET_NO":"999","REV_AT_EPOCH":"4154","BSTAR":"0.00000000000000","MEAN_MOTION_DOT":"0.00000065","MEAN_MOTION_DDOT":"0.0000000000000","SEMIMAJOR_AXIS":"29600.342","PERIOD":"844.704","APOAPSIS":"23238.020","PERIAPSIS":"23206.395","OBJECT_TYPE":"PAYLOAD","RCS_SIZE":"LARGE","COUNTRY_CODE":"ESA","LAUNCH_DATE":"2012-10-12","SITE":"FRGUI","DECAY_DATE":null,"FILE":"2495374","GP_ID":"133338784","TLE_LINE0":"0 GALILEO-FM3","TLE_LINE1":"1 38857U 12055A   19166.79289745 +.00000065 +00000-0 +00000-0 0  9999","TLE_LINE2":"2 38857 054.9336 171.9079 0005342 267.3153 092.6462 01.70473802041543"},{"CCSDS_OMM_VERS":"2.0","COMMENT":"GENERATED VIA SPACE-TRACK.ORG API","CREATION_DATE":"2019-06-16T06:30:17","ORIGINATOR":"18 SPCS","OBJECT_NAME":"GALILEO-FM3","OBJECT_ID":"2012-055A","CENTER_NAME":"EARTH","REF_FRAME":"TEME","TIME_SYSTEM":"UTC","MEAN_ELEMENT_THEORY":"SGP4","EPOCH":"2019-06-15T19:01:46.341408","MEAN_MOTION":"1.70473811","ECCENTRICITY":"0.00053140","INCLINATION":"54.9358","RA_OF_ASC_NODE":"171.9079","ARG_OF_PERICENTER":"267.2825","MEAN_ANOMALY":"92.6793","EPHEMERIS_TYPE":"0","CLASSIFICATION_TYPE":"U","NORAD_CAT_ID":"38857","ELEMENT_SET_NO":"999","REV_AT_EPOCH":"4154","BSTAR":"0.00000000000000","MEAN_MOTION_DOT":"0.00000065","MEAN_MOTION_DDOT":"0.0000000000000","SEMIMAJOR_AXIS":"29600.341","PERIOD":"844.704","APOAPSIS":"23237.936","PERIAPSIS":"23206.477","OBJECT_TYPE":"PAYLOAD","RCS_SIZE":"LARGE","COUNTRY_CODE":"ESA","LAUNCH_DATE":"2012-10-12","SITE":"FRGUI","DECAY_DATE":null,"FILE":"2495425","GP_ID":"133363052","TLE_LINE0":"0 GALILEO-FM3","TLE_LINE1":"1 38857U 12055A   19166.79289747  .00000065  00000-0  00000+0 0  9990","TLE_LINE2":"2 38857  54.9358 171.9079 0005314 267.2825  92.6793  1.70473811 41548"},{"CCSDS_OMM_VERS":"2.0","COMMENT":"GENERATED VIA SPACE-TRACK.ORG API","CREATION_DATE":"2019-06-18T14:20:17","ORIGINATOR":"18 SPCS","OBJECT_NAME":"GALILEO-FM3","OBJECT_ID":"2012-055A","CENTER_NAME":"EARTH","REF_FRAME":"TEME","TIME_SYSTEM":"UTC","MEAN_ELEMENT_THEORY":"SGP4","EPOCH":"2019-06-18T03:20:27.312864","MEAN_MOTION":"1.70473869","ECCENTRICITY":"0.00053120","INCLINATION":"54.9358","RA_OF_ASC_NODE":"171.8433","ARG_OF_PERICENTER":"267.3562","MEAN_ANOMALY":"92.5896","EPHEMERIS_TYPE":"0","CLASSIFICATION_TYPE":"U","NORAD_CAT_ID":"38857","ELEMENT_SET_NO":"999","REV_AT_EPOCH":"4158","BSTAR":"0.00000000000000","MEAN_MOTION_DOT":"0.00000052","MEAN_MOTION_DDOT":"0.0000000000000","SEMIMAJOR_AXIS":"29600.335","PERIOD":"844.704","APOAPSIS":"23237.923","PERIAPSIS":"23206.476","OBJECT_TYPE":"PAYLOAD","RCS_SIZE":"LARGE","COUNTRY_CODE":"ESA","LAUNCH_DATE":"2012-10-12","SITE":"FRGUI","DECAY_DATE":null,"FILE":"2496598","GP_ID":"133484000","TLE_LINE0":"0 GALILEO-FM3","TLE_LINE1":"1 38857U 12055A   19169.13920501  .00000052  00000-0  00000+0 0  9997","TLE_LINE2":"2 38857  54.9358 171.8433 0005312 267.3562  92.5896  1.70473869 41588"},{"CCSDS_OMM_VERS":"2.0","COMMENT":"GENERATED VIA SPACE-TRACK.ORG API","CREATION_DATE":"2019-06-21T04:53:45","ORIGINATOR":"18 SPCS","OBJECT_NAME":"GALILEO-FM3","OBJECT_ID":"2012-055A","CENTER_NAME":"EARTH","REF_FRAME":"TEME","TIME_SYSTEM":"UTC","MEAN_ELEMENT_THEORY":"SGP4","EPOCH":"2019-06-19T21:34:28.548192","MEAN_MOTION":"1.70473919","ECCENTRICITY":"0.00053280","INCLINATION":"54.9349","RA_OF_ASC_NODE":"171.7948","ARG_OF_PERICENTER":"267.1199","MEAN_ANOMALY":"92.8175","EPHEMERIS_TYPE":"0","CLASSIFICATION_TYPE":"U","NORAD_CAT_ID":"38857","ELEMENT_SET_NO":"999","REV_AT_EPOCH":"4161","BSTAR":"0.00000000000000","MEAN_MOTION_DOT":"0.00000051","MEAN_MOTION_DDOT":"0.0000000000000","SEMIMAJOR_AXIS":"29600.329","PERIOD":"844.703","APOAPSIS":"23237.965","PERIAPSIS":"23206.423","OBJECT_TYPE":"PAYLOAD","RCS_SIZE":"LARGE","COUNTRY_CODE":"ESA","LAUNCH_DATE":"2012-10-12","SITE":"FRGUI","DECAY_DATE":null,"FILE":"2497913","GP_ID":"133716543","TLE_LINE0":"0 GALILEO-FM3","TLE_LINE1":"1 38857U 12055A   19170.89894153 +.00000051 +00000-0 +00000-0 0  9995","TLE_LINE2":"2 38857 054.9349 171.7948 0005328 267.1199 092.8175 01.70473919041612"},{"CCSDS_OMM_VERS":"2.0","COMMENT":"GENERATED VIA SPACE-TRACK.ORG API","CREATION_DATE":"2019-06-21T14:20:16","ORIGINATOR":"18 SPCS","OBJECT_NAME":"GALILEO-FM3","OBJECT_ID":"2012-055A","CENTER_NAME":"EARTH","REF_FRAME":"TEME","TIME_SYSTEM":"UTC","MEAN_ELEMENT_THEORY":"SGP4","EPOCH":"2019-06-21T01:43:49.852128","MEAN_MOTION":"1.70473944","ECCENTRICITY":"0.00053320","INCLINATION":"54.9347","RA_OF_ASC_NODE":"171.7624","ARG_OF_PERICENTER":"267.2326","MEAN_ANOMALY":"92.7027","EPHEMERIS_TYPE":"0","CLASSIFICATION_TYPE":"U","NORAD_CAT_ID":"38857","ELEMENT_SET_NO":"999","REV_AT_EPOCH":"4163","BSTAR":"0.00000000000000","MEAN_MOTION_DOT":"0.00000056","MEAN_MOTION_DDOT":"0.0000000000000","SEMIMAJOR_AXIS":"29600.326","PERIOD":"844.703","APOAPSIS":"23237.974","PERIAPSIS":"23206.408","OBJECT_TYPE":"PAYLOAD","RCS_SIZE":"LARGE","COUNTRY_CODE":"ESA","LAUNCH_DATE":"2012-10-12","SITE":"FRGUI","DECAY_DATE":null,"FILE":"2498131","GP_ID":"133725658","TLE_LINE0":"0 GALILEO-FM3","TLE_LINE1":"1 38857U 12055A   19172.07210477  .00000056  00000-0  00000+0 0  9992","TLE_LINE2":"2 38857  54.9347 171.7624 0005332 267.2326  92.7027  1.70473944 41634"},{"CCSDS_OMM_VERS":"2.0","COMMENT":"GENERATED VIA SPACE-TRACK.ORG API","CREATION_DATE":"2019-06-23T04:16:28","ORIGINATOR":"18 SPCS","OBJECT_NAME":"GALILEO-FM3","OBJECT_ID":"2012-055A","CENTER_NAME":"EARTH","REF_FRAME":"TEME","TIME_SYSTEM":"UTC","MEAN_ELEMENT_THEORY":"SGP4","EPOCH":"2019-06-22T05:53:11.570784","MEAN_MOTION":"1.70473962","ECCENTRICITY":"0.00053270","INCLINATION":"54.9350","RA_OF_ASC_NODE":"171.7301","ARG_OF_PERICENTER":"267.3075","MEAN_ANOMALY":"92.6286","EPHEMERIS_TYPE":"0","CLASSIFICATION_TYPE":"U","NORAD_CAT_ID":"38857","ELEMENT_SET_NO":"999","REV_AT_EPOCH":"4165","BSTAR":"0.00000000000000","MEAN_MOTION_DOT":"0.00000063","MEAN_MOTION_DDOT":"0.0000000000000","SEMIMAJOR_AXIS":"29600.324","PERIOD":"844.703","APOAPSIS":"23237.957","PERIAPSIS":"23206.421","OBJECT_TYPE":"PAYLOAD","RCS_SIZE":"LARGE","COUNTRY_CODE":"ESA","LAUNCH_DATE":"2012-10-12","SITE":"FRGUI","DECAY_DATE":null,"FILE":"2498920","GP_ID":"133871222","TLE_LINE0":"0 GALILEO-FM3","TLE_LINE1":"1 38857U 12055A   19173.24527281 +.00000063 +00000-0 +00000-0 0  9995","TLE_LINE2":"2 38857 054.9350 171.7301 0005327 267.3075 092.6286 01.70473962041654"}]